{"fetched_at":"2026-07-12T17:32:24.168Z","source":"https://celestrak.org/NORAD/elements/gp.php?GROUP=oneweb&FORMAT=JSON","constellation":"oneweb","records":[{"OBJECT_NAME":"ONEWEB-0335","OBJECT_ID":"2021-083R","EPOCH":"2026-07-12T06:34:06.562848","CLASSIFICATION_TYPE":"U","MEAN_MOTION":13.13464613,"ECCENTRICITY":0.0001826,"INCLINATION":87.8985,"RA_OF_ASC_NODE":315.2381,"ARG_OF_PERICENTER":99.1485,"MEAN_ANOMALY":260.985,"EPHEMERIS_TYPE":0,"NORAD_CAT_ID":49201,"ELEMENT_SET_NO":999,"REV_AT_EPOCH":23421,"BSTAR":-0.00035483,"MEAN_MOTION_DOT":-0.00000117,"MEAN_MOTION_DDOT":0},{"OBJECT_NAME":"ONEWEB-0336","OBJECT_ID":"2021-083S","EPOCH":"2026-07-11T20:44:11.721984","CLASSIFICATION_TYPE":"U","MEAN_MOTION":13.13468572,"ECCENTRICITY":0.0001906,"INCLINATION":87.8975,"RA_OF_ASC_NODE":315.3157,"ARG_OF_PERICENTER":88.3793,"MEAN_ANOMALY":271.7555,"EPHEMERIS_TYPE":0,"NORAD_CAT_ID":49202,"ELEMENT_SET_NO":999,"REV_AT_EPOCH":23415,"BSTAR":0.00065438443,"MEAN_MOTION_DOT":0.00000252,"MEAN_MOTION_DDOT":0},{"OBJECT_NAME":"ONEWEB-0337","OBJECT_ID":"2021-083T","EPOCH":"2026-07-12T09:46:30.448704","CLASSIFICATION_TYPE":"U","MEAN_MOTION":13.13469634,"ECCENTRICITY":0.0002089,"INCLINATION":87.8967,"RA_OF_ASC_NODE":315.2135,"ARG_OF_PERICENTER":97.2797,"MEAN_ANOMALY":262.8569,"EPHEMERIS_TYPE":0,"NORAD_CAT_ID":49203,"ELEMENT_SET_NO":999,"REV_AT_EPOCH":23422,"BSTAR":0.0010598,"MEAN_MOTION_DOT":0.000004,"MEAN_MOTION_DDOT":0},{"OBJECT_NAME":"ONEWEB-0338","OBJECT_ID":"2021-083U","EPOCH":"2026-07-11T17:42:26.988768","CLASSIFICATION_TYPE":"U","MEAN_MOTION":13.20770463,"ECCENTRICITY":0.00020813,"INCLINATION":87.918,"RA_OF_ASC_NODE":269.5549,"ARG_OF_PERICENTER":106.4803,"MEAN_ANOMALY":253.6559,"EPHEMERIS_TYPE":0,"NORAD_CAT_ID":49204,"ELEMENT_SET_NO":999,"REV_AT_EPOCH":24005,"BSTAR":-0.000033947637,"MEAN_MOTION_DOT":-1e-8,"MEAN_MOTION_DDOT":0},{"OBJECT_NAME":"ONEWEB-0339","OBJECT_ID":"2021-083V","EPOCH":"2026-07-12T08:09:11.241216","CLASSIFICATION_TYPE":"U","MEAN_MOTION":13.13468769,"ECCENTRICITY":0.0002147,"INCLINATION":87.898,"RA_OF_ASC_NODE":315.2198,"ARG_OF_PERICENTER":112.5273,"MEAN_ANOMALY":247.6083,"EPHEMERIS_TYPE":0,"NORAD_CAT_ID":49205,"ELEMENT_SET_NO":999,"REV_AT_EPOCH":23419,"BSTAR":0.00058251,"MEAN_MOTION_DOT":0.00000225,"MEAN_MOTION_DDOT":0},{"OBJECT_NAME":"ONEWEB-0340","OBJECT_ID":"2021-083W","EPOCH":"2026-07-11T20:51:44.177184","CLASSIFICATION_TYPE":"U","MEAN_MOTION":13.18687466,"ECCENTRICITY":0.00019066,"INCLINATION":87.9195,"RA_OF_ASC_NODE":330.5474,"ARG_OF_PERICENTER":92.1726,"MEAN_ANOMALY":267.9624,"EPHEMERIS_TYPE":0,"NORAD_CAT_ID":49206,"ELEMENT_SET_NO":999,"REV_AT_EPOCH":23322,"BSTAR":0.00015586586,"MEAN_MOTION_DOT":7.4e-7,"MEAN_MOTION_DDOT":0},{"OBJECT_NAME":"ONEWEB-0341","OBJECT_ID":"2021-083X","EPOCH":"2026-07-12T09:46:16.540032","CLASSIFICATION_TYPE":"U","MEAN_MOTION":13.18687764,"ECCENTRICITY":0.000226,"INCLINATION":87.9177,"RA_OF_ASC_NODE":330.4417,"ARG_OF_PERICENTER":90.6334,"MEAN_ANOMALY":269.5057,"EPHEMERIS_TYPE":0,"NORAD_CAT_ID":49207,"ELEMENT_SET_NO":999,"REV_AT_EPOCH":23331,"BSTAR":0.000062925,"MEAN_MOTION_DOT":3.8e-7,"MEAN_MOTION_DDOT":0},{"OBJECT_NAME":"ONEWEB-0342","OBJECT_ID":"2021-083Y","EPOCH":"2026-07-11T17:52:08.886720","CLASSIFICATION_TYPE":"U","MEAN_MOTION":13.2074068,"ECCENTRICITY":0.00018572,"INCLINATION":87.9154,"RA_OF_ASC_NODE":269.5484,"ARG_OF_PERICENTER":118.767,"MEAN_ANOMALY":241.365,"EPHEMERIS_TYPE":0,"NORAD_CAT_ID":49208,"ELEMENT_SET_NO":999,"REV_AT_EPOCH":24002,"BSTAR":0.015595131,"MEAN_MOTION_DOT":0.00006355,"MEAN_MOTION_DDOT":0},{"OBJECT_NAME":"ONEWEB-0343","OBJECT_ID":"2021-083Z","EPOCH":"2026-07-12T09:58:25.300704","CLASSIFICATION_TYPE":"U","MEAN_MOTION":13.18687896,"ECCENTRICITY":0.0002121,"INCLINATION":87.9175,"RA_OF_ASC_NODE":330.4386,"ARG_OF_PERICENTER":107.0612,"MEAN_ANOMALY":253.0752,"EPHEMERIS_TYPE":0,"NORAD_CAT_ID":49209,"ELEMENT_SET_NO":999,"REV_AT_EPOCH":23336,"BSTAR":0.00017158,"MEAN_MOTION_DOT":8.1e-7,"MEAN_MOTION_DDOT":0},{"OBJECT_NAME":"ONEWEB-0344","OBJECT_ID":"2021-083AA","EPOCH":"2026-07-12T08:01:51.854016","CLASSIFICATION_TYPE":"U","MEAN_MOTION":13.13470229,"ECCENTRICITY":0.0002282,"INCLINATION":87.8971,"RA_OF_ASC_NODE":315.2339,"ARG_OF_PERICENTER":92.5913,"MEAN_ANOMALY":267.5477,"EPHEMERIS_TYPE":0,"NORAD_CAT_ID":49210,"ELEMENT_SET_NO":999,"REV_AT_EPOCH":23419,"BSTAR":0.00024754,"MEAN_MOTION_DOT":0.00000103,"MEAN_MOTION_DDOT":0},{"OBJECT_NAME":"ONEWEB-0345","OBJECT_ID":"2021-083AB","EPOCH":"2026-07-12T11:29:04.793280","CLASSIFICATION_TYPE":"U","MEAN_MOTION":13.13469932,"ECCENTRICITY":0.0002211,"INCLINATION":87.8982,"RA_OF_ASC_NODE":315.1902,"ARG_OF_PERICENTER":97.708,"MEAN_ANOMALY":262.4301,"EPHEMERIS_TYPE":0,"NORAD_CAT_ID":49211,"ELEMENT_SET_NO":999,"REV_AT_EPOCH":23422,"BSTAR":0.00088049,"MEAN_MOTION_DOT":0.00000334,"MEAN_MOTION_DDOT":0},{"OBJECT_NAME":"ONEWEB-0346","OBJECT_ID":"2021-083AC","EPOCH":"2026-07-12T09:53:33.842400","CLASSIFICATION_TYPE":"U","MEAN_MOTION":13.18687723,"ECCENTRICITY":0.000165,"INCLINATION":87.9183,"RA_OF_ASC_NODE":330.4395,"ARG_OF_PERICENTER":78.6459,"MEAN_ANOMALY":281.4858,"EPHEMERIS_TYPE":0,"NORAD_CAT_ID":49212,"ELEMENT_SET_NO":999,"REV_AT_EPOCH":23330,"BSTAR":0.00018712,"MEAN_MOTION_DOT":8.7e-7,"MEAN_MOTION_DDOT":0},{"OBJECT_NAME":"ONEWEB-0348","OBJECT_ID":"2021-083AD","EPOCH":"2026-07-11T15:48:31.929696","CLASSIFICATION_TYPE":"U","MEAN_MOTION":13.20772122,"ECCENTRICITY":0.00022349,"INCLINATION":87.9192,"RA_OF_ASC_NODE":269.5654,"ARG_OF_PERICENTER":84.0523,"MEAN_ANOMALY":276.0865,"EPHEMERIS_TYPE":0,"NORAD_CAT_ID":49213,"ELEMENT_SET_NO":999,"REV_AT_EPOCH":24004,"BSTAR":-0.000031785214,"MEAN_MOTION_DOT":0,"MEAN_MOTION_DDOT":0},{"OBJECT_NAME":"ONEWEB-0350","OBJECT_ID":"2021-083AE","EPOCH":"2026-07-11T19:28:49.731744","CLASSIFICATION_TYPE":"U","MEAN_MOTION":13.13455211,"ECCENTRICITY":0.00015857,"INCLINATION":87.898,"RA_OF_ASC_NODE":315.3278,"ARG_OF_PERICENTER":124.9032,"MEAN_ANOMALY":235.2247,"EPHEMERIS_TYPE":0,"NORAD_CAT_ID":49214,"ELEMENT_SET_NO":999,"REV_AT_EPOCH":23416,"BSTAR":0.006485073,"MEAN_MOTION_DOT":0.00002381,"MEAN_MOTION_DDOT":0},{"OBJECT_NAME":"ONEWEB-0351","OBJECT_ID":"2021-083AF","EPOCH":"2026-07-11T17:27:42.798816","CLASSIFICATION_TYPE":"U","MEAN_MOTION":13.20770066,"ECCENTRICITY":0.00026748,"INCLINATION":87.919,"RA_OF_ASC_NODE":269.5501,"ARG_OF_PERICENTER":104.9866,"MEAN_ANOMALY":255.1564,"EPHEMERIS_TYPE":0,"NORAD_CAT_ID":49215,"ELEMENT_SET_NO":999,"REV_AT_EPOCH":24001,"BSTAR":-0.00010005617,"MEAN_MOTION_DOT":-2.8e-7,"MEAN_MOTION_DDOT":0},{"OBJECT_NAME":"ONEWEB-0352","OBJECT_ID":"2021-083AG","EPOCH":"2026-07-12T07:35:03.538752","CLASSIFICATION_TYPE":"U","MEAN_MOTION":13.1346992,"ECCENTRICITY":0.0002235,"INCLINATION":87.8973,"RA_OF_ASC_NODE":315.232,"ARG_OF_PERICENTER":109.8486,"MEAN_ANOMALY":250.2884,"EPHEMERIS_TYPE":0,"NORAD_CAT_ID":49216,"ELEMENT_SET_NO":999,"REV_AT_EPOCH":23432,"BSTAR":0.00047859,"MEAN_MOTION_DOT":0.00000188,"MEAN_MOTION_DDOT":0},{"OBJECT_NAME":"ONEWEB-0354","OBJECT_ID":"2021-083AH","EPOCH":"2026-07-11T18:06:42.165216","CLASSIFICATION_TYPE":"U","MEAN_MOTION":13.2077142,"ECCENTRICITY":0.00021157,"INCLINATION":87.9196,"RA_OF_ASC_NODE":269.5421,"ARG_OF_PERICENTER":96.9894,"MEAN_ANOMALY":263.148,"EPHEMERIS_TYPE":0,"NORAD_CAT_ID":49217,"ELEMENT_SET_NO":999,"REV_AT_EPOCH":24005,"BSTAR":-0.00016924222,"MEAN_MOTION_DOT":-5.6e-7,"MEAN_MOTION_DDOT":0},{"OBJECT_NAME":"ONEWEB-0355","OBJECT_ID":"2021-083AJ","EPOCH":"2026-07-09T07:09:49.844448","CLASSIFICATION_TYPE":"U","MEAN_MOTION":13.13300713,"ECCENTRICITY":0.00020436,"INCLINATION":87.897,"RA_OF_ASC_NODE":315.832,"ARG_OF_PERICENTER":101.5704,"MEAN_ANOMALY":258.5654,"EPHEMERIS_TYPE":0,"NORAD_CAT_ID":49218,"ELEMENT_SET_NO":999,"REV_AT_EPOCH":23380,"BSTAR":0.00092726532,"MEAN_MOTION_DOT":0.00000351,"MEAN_MOTION_DDOT":0},{"OBJECT_NAME":"ONEWEB-0357","OBJECT_ID":"2021-083AK","EPOCH":"2026-07-11T18:01:50.289600","CLASSIFICATION_TYPE":"U","MEAN_MOTION":13.20769516,"ECCENTRICITY":0.00022645,"INCLINATION":87.9189,"RA_OF_ASC_NODE":269.5381,"ARG_OF_PERICENTER":101.2633,"MEAN_ANOMALY":258.8755,"EPHEMERIS_TYPE":0,"NORAD_CAT_ID":49219,"ELEMENT_SET_NO":999,"REV_AT_EPOCH":24005,"BSTAR":-0.00042063128,"MEAN_MOTION_DOT":-0.00000158,"MEAN_MOTION_DDOT":0},{"OBJECT_NAME":"ONEWEB-0332","OBJECT_ID":"2021-090A","EPOCH":"2026-07-11T19:18:44.164512","CLASSIFICATION_TYPE":"U","MEAN_MOTION":13.14507397,"ECCENTRICITY":0.0001904,"INCLINATION":87.8974,"RA_OF_ASC_NODE":284.8018,"ARG_OF_PERICENTER":128.1345,"MEAN_ANOMALY":231.9956,"EPHEMERIS_TYPE":0,"NORAD_CAT_ID":49279,"ELEMENT_SET_NO":999,"REV_AT_EPOCH":23081,"BSTAR":-0.000088922585,"MEAN_MOTION_DOT":-2e-7,"MEAN_MOTION_DDOT":0},{"OBJECT_NAME":"ONEWEB-0347","OBJECT_ID":"2021-090B","EPOCH":"2026-07-11T17:47:17.824128","CLASSIFICATION_TYPE":"U","MEAN_MOTION":13.20769369,"ECCENTRICITY":0.00019926,"INCLINATION":87.9186,"RA_OF_ASC_NODE":269.5481,"ARG_OF_PERICENTER":104.3801,"MEAN_ANOMALY":255.7554,"EPHEMERIS_TYPE":0,"NORAD_CAT_ID":49280,"ELEMENT_SET_NO":999,"REV_AT_EPOCH":23428,"BSTAR":-0.00014259434,"MEAN_MOTION_DOT":-4.5e-7,"MEAN_MOTION_DDOT":0},{"OBJECT_NAME":"ONEWEB-0349","OBJECT_ID":"2021-090C","EPOCH":"2026-07-11T16:44:15.610560","CLASSIFICATION_TYPE":"U","MEAN_MOTION":13.20770533,"ECCENTRICITY":0.00021669,"INCLINATION":87.9189,"RA_OF_ASC_NODE":269.558,"ARG_OF_PERICENTER":98.7023,"MEAN_ANOMALY":261.4356,"EPHEMERIS_TYPE":0,"NORAD_CAT_ID":49281,"ELEMENT_SET_NO":999,"REV_AT_EPOCH":23306,"BSTAR":-0.00053974081,"MEAN_MOTION_DOT":-0.00000206,"MEAN_MOTION_DDOT":0},{"OBJECT_NAME":"ONEWEB-0353","OBJECT_ID":"2021-090D","EPOCH":"2026-07-11T19:07:19.654464","CLASSIFICATION_TYPE":"U","MEAN_MOTION":13.14501671,"ECCENTRICITY":0.00019566,"INCLINATION":87.8973,"RA_OF_ASC_NODE":284.802,"ARG_OF_PERICENTER":106.014,"MEAN_ANOMALY":254.1205,"EPHEMERIS_TYPE":0,"NORAD_CAT_ID":49282,"ELEMENT_SET_NO":999,"REV_AT_EPOCH":23081,"BSTAR":0.000057847148,"MEAN_MOTION_DOT":3.4e-7,"MEAN_MOTION_DDOT":0}]}
